#cP2012 10 30  0  0  0.00000000     288 u+U   IGb08 FIT  TUM
## 1712 172800.00000000   300.00000000 56230 0.0000000000000
+    3   J01E11E12  0  0  0  0  0  0  0  0  0  0  0  0  0  0
+          0  0  0  0  0  0  0  0  0  0  0  0  0  0  0  0  0
+          0  0  0  0  0  0  0  0  0  0  0  0  0  0  0  0  0
+          0  0  0  0  0  0  0  0  0  0  0  0  0  0  0  0  0
+          0  0  0  0  0  0  0  0  0  0  0  0  0  0  0  0  0
++         4  1  1  0  0  0  0  0  0  0  0  0  0  0  0  0  0
++         0  0  0  0  0  0  0  0  0  0  0  0  0  0  0  0  0
++         0  0  0  0  0  0  0  0  0  0  0  0  0  0  0  0  0
++         0  0  0  0  0  0  0  0  0  0  0  0  0  0  0  0  0
++         0  0  0  0  0  0  0  0  0  0  0  0  0  0  0  0  0
%c E  cc GPS ccc cccc cccc cccc cccc ccccc ccccc ccccc ccccc
%c cc cc ccc ccc cccc cccc cccc cccc ccccc ccccc ccccc ccccc
%f  1.2500000  1.025000000  0.00000000000  0.000000000000000
%f  0.0000000  0.000000000  0.00000000000  0.000000000000000
%i    0    0    0    0      0      0      0      0         0
%i    0    0    0    0      0      0      0      0         0
/* Galileo+QZSS orbits for MGEX based on CONGO+MGEX data    
/* Technische Universitaet Muenchen (TUM)                   
/* Further information: www.iapg.bv.tum.de/mgex             
/* PCV:IGS08_1645 OL/AL:FES2004  NONE     YN ORB:CoN CLK:CoN
*  2012 10 30 16 40  0.00000000
PJ01 -17442.935393  28615.308128 -20983.267653    -17.172403
PE11 -28217.263191  -7912.833862   4153.376809   1228.145200
PE12 -16395.862458 -16189.450982  18581.344301    397.722791
*  2012 10 30 16 45  0.00000000
PJ01 -17433.217439  28310.730558 -21327.440228    -17.174730
PE11 -28082.628188  -7878.511339   5036.224067   1228.169990
PE12 -15837.079936 -16090.111967  19143.692444    397.748315
*  2012 10 30 16 50  0.00000000
PJ01 -17435.091134  28003.051771 -21659.197913    -17.176462
PE11 -27921.059911  -7843.538844   5912.103074   1228.194790
PE12 -15259.849453 -16001.073675  19679.561949    397.773829
*  2012 10 30 16 55  0.00000000
PJ01 -17448.651843  27692.765845 -21978.311185    -17.178286
PE11 -27732.702130  -7809.123366   6779.801838   1228.219590
PE12 -14665.162955 -15923.202308  20188.211718    397.799392
*  2012 10 30 17  0  0.00000000
PJ01 -17473.972923  27380.373455 -22284.558083    -17.180157
PE11 -27517.775528  -7776.463426   7638.119676   1228.244380
PE12 -14054.064874 -15857.309409  20668.938300    397.824907
*  2012 10 30 17  5  0.00000000
PJ01 -17511.105418  27066.380876 -22577.724488    -17.181925
PE11 -27276.577038  -7746.744636   8485.868856   1228.269170
PE12 -13427.648734 -15804.148895  21121.076862    397.850437
*  2012 10 30 17 10  0.00000000
PJ01 -17560.077825  26751.298929 -22857.604413    -17.183738
PE11 -27009.478907  -7721.135319   9321.876270   1228.293970
PE12 -12787.053568 -15764.414316  21544.002109    397.875945
*  2012 10 30 17 15  0.00000000
PJ01 -17620.895886  26435.641942 -23124.000266    -17.185597
PE11 -26716.927513  -7700.782176  10144.985035   1228.318780
PE12 -12133.460205 -15738.736306  21937.129140    397.901503
*  2012 10 30 17 20  0.00000000
PJ01 -17693.542447  26119.926679 -23376.723127    -17.187394
PE11 -26399.441921  -7686.806028  10954.056113   1228.343590
PE12 -11468.087390 -15727.680276  22299.914266    397.927034
*  2012 10 30 17 25  0.00000000
PJ01 -17777.977376  25804.671257 -23615.592998    -17.189203
PE11 -26057.612187  -7680.297673  11747.969888   1228.368380
PE12 -10792.187781 -15731.744326  22631.855751    397.952563
*  2012 10 30 17 30  0.00000000
PJ01 -17874.137520  25490.394059 -23840.439051    -17.191090
PE11 -25692.097422  -7682.313821  12525.627705   1228.393190
PE12 -10107.043835 -15751.357403  22932.494508    397.978107
*  2012 10 30 17 35  0.00000000
PJ01 -17981.936724  25177.612641 -24051.099867    -17.192912
PE11 -25303.623618  -7693.873169  13285.953412   1228.417990
PE12  -9413.963587 -15786.877697  23201.414734    398.003612
*  2012 10 30 17 40  0.00000000
PJ01 -18101.265914  24866.842627 -24247.423659    -17.194724
PE11 -24892.981239  -7715.952602  14027.894834   1228.442750
PE12  -8714.276341 -15838.591297  23438.244482    398.029128
*  2012 10 30 17 45  0.00000000
PJ01 -18231.993217  24558.596614 -24429.268492    -17.196618
PE11 -24461.022597  -7749.483547  14750.425245   1228.467550
PE12  -8009.328286 -15906.711091  23642.656174    398.054663
*  2012 10 30 17 50  0.00000000
PJ01 -18373.964152  24253.383075 -24596.502477    -17.198398
PE11 -24008.659017  -7795.348482  15452.544776   1228.492340
PE12  -7300.478067 -15991.375935  23814.367054    398.080195
*  2012 10 30 17 55  0.00000000
PJ01 -18527.001873  23951.705259 -24749.003967    -17.200218
PE11 -23536.857786  -7854.377626  16133.281818   1228.517150
PE12  -6589.092292 -16092.650081  23953.139581    398.105747
*  2012 10 30 18  0  0.00000000
PJ01 -18690.907456  23654.060124 -24886.661725    -17.202100
PE11 -23046.638931  -7927.345801  16791.694349   1228.541970
PE12  -5876.541040 -16210.522865  24058.781748    398.131259
*  2012 10 30 18  5  0.00000000
PJ01 -18865.460250  23360.937238 -25009.375112    -17.203906
PE11 -22539.071806  -8014.969501  17426.871249   1228.566770
PE12  -5164.193341 -16344.908657  24131.147364    398.156809
*  2012 10 30 18 10  0.00000000
PJ01 -19050.418300  23072.817756 -25117.054181    -17.205714
PE11 -22015.271491  -8117.904170  18037.933569   1228.591590
PE12  -4453.412646 -16495.647104  24170.136236    398.182317
*  2012 10 30 18 15  0.00000000
PJ01 -19245.518777  22790.173350 -25209.619864    -17.207598
PE11 -21476.395081  -8236.741678  18624.035727   1228.616370
PE12  -3745.552361 -16662.503594  24175.694323    398.207848
*  2012 10 30 18 20  0.00000000
PJ01 -19450.478505  22513.465200 -25287.004059    -17.209461
PE11 -20923.637784  -8372.008039  19184.366701   1228.641190
PE12  -3041.951374 -16845.170015  24147.813804    398.233364
*  2012 10 30 18 25  0.00000000
PJ01 -19664.994507  22243.143003 -25349.149741    -17.211258
PE11 -20358.228925  -8524.161348  19718.151134   1228.665990
PE12  -2343.929663 -17043.265765  24086.533093    398.258907
*  2012 10 30 18 30  0.00000000
PJ01 -19888.744628  21979.643990 -25396.011041    -17.213109
PE11 -19781.427805  -8693.589971  20224.650420   1228.690800
PE12  -1652.783946 -17256.339017  23991.936786    398.284445
*  2012 10 30 18 35  0.00000000
PJ01 -20121.388182  21723.391996 -25427.553319    -17.214952
PE11 -19194.519490  -8880.610970  20703.163716   1228.715630
PE12   -969.783437 -17483.868235  23864.155542    398.309969
*  2012 10 30 18 40  0.00000000
PJ01 -20362.566659  21474.796542 -25443.753216    -17.216646
PE11 -18598.810477  -9085.468785  21153.028921   1228.740450
PE12   -296.165679 -17725.263948  23703.365909    398.335500
*  2012 10 30 18 45  0.00000000
PJ01 -20611.904463  21234.251963 -25444.598685    -17.218528
PE11 -17995.624331  -9308.334165  21573.623580   1228.765270
PE12    366.867495 -17979.870749  23509.790077    398.361031
*  2012 10 30 18 50  0.00000000
PJ01 -20869.009714  21002.136567 -25430.089013    -17.220398
PE11 -17386.297224  -9549.303371  21964.365759   1228.790060
PE12   1018.153892 -18246.969539  23283.695575    398.386576
*  2012 10 30 18 55  0.00000000
PJ01 -21133.475068  20778.811832 -25400.234822    -17.222188
PE11 -16772.173462  -9808.397634  22324.714838   1228.814860
PE12   1656.574741 -18525.779999  23025.394901    398.412098
*  2012 10 30 19  0  0.00000000
PJ01 -21404.878583  20564.621650 -25355.058051    -17.224034
PE11 -16154.600978 -10085.562875  22654.172263   1228.839690
PE12   2281.058319 -18815.463266  22735.245096    398.437645
*  2012 10 30 19  5  0.00000000
PJ01 -21682.784624  20359.891613 -25294.591926    -17.225857
PE11 -15534.926808 -10380.669695  22952.282237   1228.864500
PE12   2890.583429 -19115.124838  22413.647246    398.463183
*  2012 10 30 19 10  0.00000000
PJ01 -21966.744794  20164.928334 -25218.880908    -17.227653
PE11 -14914.492592 -10693.513633  23218.632344   1228.889270
PE12   3484.182678 -19423.817655  22061.045937    398.488717
*  2012 10 30 19 15  0.00000000
PJ01 -22256.298899  19980.018832 -25127.980628    -17.229517
PE11 -14294.630071 -11023.815682  23452.854125   1228.914080
PE12   4060.945590 -19740.545386  21677.928636    398.514271
*  2012 10 30 19 20  0.00000000
PJ01 -22550.975941  19805.429951 -25021.957807    -17.231358
PE11 -13676.656649 -11371.223075  23654.623583   1228.938900
PE12   4620.021509 -20064.265882  21264.825024    398.539820
*  2012 10 30 19 25  0.00000000
PJ01 -22850.295133  19641.407836 -24900.890153    -17.233142
PE11 -13061.870983 -11735.310328  23823.661634   1228.963690
PE12   5160.622290 -20393.894798  20822.306262    398.565358
*  2012 10 30 19 30  0.00000000
PJ01 -23153.766933  19488.177460 -24764.866251    -17.235007
PE11 -12451.548663 -12115.580537  23959.734486   1228.988500
PE12   5682.024780 -20728.309358  20350.984208    398.590868
*  2012 10 30 19 35  0.00000000
PJ01 -23460.894106  19345.942204 -24613.985427    -17.236835
PE11 -11846.937961 -12511.466933  24062.653969   1229.013320
PE12   6183.573068 -21066.352273  19851.510568    398.616424
*  2012 10 30 19 40  0.00000000
PJ01 -23771.172790  19214.883488 -24448.357611    -17.238642
PE11 -11249.255681 -12922.334683  24132.277791   1229.038100
PE12   6664.680502 -21406.835773  19324.576002    398.641943
*  2012 10 30 19 45  0.00000000
PJ01 -24084.093583  19095.160455 -24268.103169    -17.240516
PE11 -10659.683131 -13347.482924  24168.509730   1229.062900
PE12   7124.831465 -21748.545747  18770.909168    398.667474
*  2012 10 30 19 50  0.00000000
PJ01 -24399.142638  18986.909719 -24073.352737    -17.242371
PE11 -10079.362203 -13786.147043  24171.299776   1229.087720
PE12   7563.582898 -22090.245990  18191.275717    398.693000
*  2012 10 30 19 55  0.00000000
PJ01 -24715.802760  18890.245154 -23864.247027    -17.244157
PE11  -9509.391616 -14237.501173  24140.644189   1229.112520
PE12   7980.565578 -22430.682524  17586.477238    398.718509
EOF
